XRISM                   
1 57800U 23137A   23260.50349812  .00005460  00000+0  44600-3 0  9992
2 57800  31.0042 310.1005 0009924  20.9613 339.1428 14.97897119  1497
